{
  "type": "FeatureCollection",
  "features": [
    {
      "type": "Feature",
      "properties": {
        "norad_id": 31307,
        "name": "GALAXY 17 (G-17)",
        "group": "intelsat",
        "lat": 1.7177144778636082,
        "lon": 124.30070850104416,
        "alt_km": 35801.27414169417,
        "timestamp": "2025-12-24T07:45:05.866322+00:00",
        "meta_object_name": "GALAXY 17 (G-17)",
        "meta_object_id": "2007-016B",
        "meta_epoch": "2025-12-23T19:34:36.930144",
        "meta_mean_motion": 1.00269416,
        "meta_eccentricity": 0.00053529,
        "meta_inclination": 2.5261,
        "meta_ra_of_asc_node": 82.1608,
        "meta_arg_of_pericenter": 172.5304,
        "meta_mean_anomaly": 46.5726,
        "meta_ephemeris_type": 0,
        "meta_classification_type": "U",
        "meta_norad_cat_id": 31307,
        "meta_element_set_no": 999,
        "meta_rev_at_epoch": 6804,
        "meta_bstar": 0,
        "meta_mean_motion_dot": -1.86e-06,
        "meta_mean_motion_ddot": 0,
        "tle_line1": "1 31307U 07016B   25357.81570521 -.00000186  00000+0  00000+0 0  9993",
        "tle_line2": "2 31307   2.5261  82.1608 0005352 172.5304  46.5726  1.00269416 68041"
      },
      "geometry": {
        "type": "Point",
        "coordinates": [
          124.30070850104416,
          1.7177144778636082
        ]
      }
    },
    {
      "type": "Feature",
      "properties": {
        "norad_id": 31862,
        "name": "DIRECTV 10",
        "group": "intelsat",
        "lat": 0.005768575475949151,
        "lon": 106.57320803922808,
        "alt_km": 35786.23263591742,
        "timestamp": "2025-12-24T07:45:05.866333+00:00",
        "meta_object_name": "DIRECTV 10",
        "meta_object_id": "2007-032A",
        "meta_epoch": "2025-12-23T16:04:04.915776",
        "meta_mean_motion": 1.00272171,
        "meta_eccentricity": 2.717e-05,
        "meta_inclination": 0.0092,
        "meta_ra_of_asc_node": 113.2913,
        "meta_arg_of_pericenter": 95.817,
        "meta_mean_anomaly": 21.5753,
        "meta_ephemeris_type": 0,
        "meta_classification_type": "U",
        "meta_norad_cat_id": 31862,
        "meta_element_set_no": 999,
        "meta_rev_at_epoch": 4383,
        "meta_bstar": 0,
        "meta_mean_motion_dot": -8.2e-07,
        "meta_mean_motion_ddot": 0,
        "tle_line1": "1 31862U 07032A   25357.66950134 -.00000082  00000+0  00000+0 0  9997",
        "tle_line2": "2 31862   0.0092 113.2913 0000271  95.8170  21.5753  1.00272171 43835"
      },
      "geometry": {
        "type": "Point",
        "coordinates": [
          106.57320803922808,
          0.005768575475949151
        ]
      }
    },
    {
      "type": "Feature",
      "properties": {
        "norad_id": 32253,
        "name": "INTELSAT 11 (IS-11)",
        "group": "intelsat",
        "lat": -2.593317528085472,
        "lon": 24.25816184325467,
        "alt_km": 36156.338088123775,
        "timestamp": "2025-12-24T07:45:05.866346+00:00",
        "meta_object_name": "INTELSAT 11 (IS-11)",
        "meta_object_id": "2007-044B",
        "meta_epoch": "2025-12-23T17:23:57.267168",
        "meta_mean_motion": 0.99052963,
        "meta_eccentricity": 0.00085689,
        "meta_inclination": 3.107,
        "meta_ra_of_asc_node": 80.8548,
        "meta_arg_of_pericenter": 170.4374,
        "meta_mean_anomaly": 279.6071,
        "meta_ephemeris_type": 0,
        "meta_classification_type": "U",
        "meta_norad_cat_id": 32253,
        "meta_element_set_no": 999,
        "meta_rev_at_epoch": 6671,
        "meta_bstar": 0,
        "meta_mean_motion_dot": -1.53e-06,
        "meta_mean_motion_ddot": 0,
        "tle_line1": "1 32253U 07044B   25357.72496837 -.00000153  00000+0  00000+0 0  9996",
        "tle_line2": "2 32253   3.1070  80.8548 0008568 170.4374 279.6071  0.99052963 66719"
      },
      "geometry": {
        "type": "Point",
        "coordinates": [
          24.25816184325467,
          -2.593317528085472
        ]
      }
    },
    {
      "type": "Feature",
      "properties": {
        "norad_id": 32388,
        "name": "HORIZONS-2",
        "group": "intelsat",
        "lat": 1.7295389345445376,
        "lon": 135.52366308752391,
        "alt_km": 35802.279802497374,
        "timestamp": "2025-12-24T07:45:05.866360+00:00",
        "meta_object_name": "HORIZONS-2",
        "meta_object_id": "2007-063B",
        "meta_epoch": "2025-12-23T21:20:27.268800",
        "meta_mean_motion": 1.00270191,
        "meta_eccentricity": 0.00046985,
        "meta_inclination": 2.1488,
        "meta_ra_of_asc_node": 82.8412,
        "meta_arg_of_pericenter": 195.9299,
        "meta_mean_anomaly": 60.2233,
        "meta_ephemeris_type": 0,
        "meta_classification_type": "U",
        "meta_norad_cat_id": 32388,
        "meta_element_set_no": 999,
        "meta_rev_at_epoch": 6605,
        "meta_bstar": 0,
        "meta_mean_motion_dot": -2.33e-06,
        "meta_mean_motion_ddot": 0,
        "tle_line1": "1 32388U 07063B   25357.88920450 -.00000233  00000+0  00000+0 0  9995",
        "tle_line2": "2 32388   2.1488  82.8412 0004698 195.9299  60.2233  1.00270191 66059"
      },
      "geometry": {
        "type": "Point",
        "coordinates": [
          135.52366308752391,
          1.7295389345445376
        ]
      }
    },
    {
      "type": "Feature",
      "properties": {
        "norad_id": 32729,
        "name": "DIRECTV 11",
        "group": "intelsat",
        "lat": 0.014695803629498695,
        "lon": 110.15355781180037,
        "alt_km": 35785.46462766132,
        "timestamp": "2025-12-24T07:45:05.866372+00:00",
        "meta_object_name": "DIRECTV 11",
        "meta_object_id": "2008-013A",
        "meta_epoch": "2025-12-23T11:18:33.914304",
        "meta_mean_motion": 1.00266312,
        "meta_eccentricity": 7.118e-05,
        "meta_inclination": 0.0383,
        "meta_ra_of_asc_node": 192.497,
        "meta_arg_of_pericenter": 321.3622,
        "meta_mean_anomaly": 8.8504,
        "meta_ephemeris_type": 0,
        "meta_classification_type": "U",
        "meta_norad_cat_id": 32729,
        "meta_element_set_no": 999,
        "meta_rev_at_epoch": 4383,
        "meta_bstar": 0,
        "meta_mean_motion_dot": -1.04e-06,
        "meta_mean_motion_ddot": 0,
        "tle_line1": "1 32729U 08013A   25357.47122586 -.00000104  00000+0  00000+0 0  9996",
        "tle_line2": "2 32729   0.0383 192.4970 0000711 321.3622   8.8504  1.00266312 43833"
      },
      "geometry": {
        "type": "Point",
        "coordinates": [
          110.15355781180037,
          0.014695803629498695
        ]
      }
    },
    {
      "type": "Feature",
      "properties": {
        "norad_id": 32951,
        "name": "GALAXY 18 (G-18)",
        "group": "intelsat",
        "lat": 0.01937133704647471,
        "lon": 86.36653104378199,
        "alt_km": 35798.30195178195,
        "timestamp": "2025-12-24T07:45:05.866384+00:00",
        "meta_object_name": "GALAXY 18 (G-18)",
        "meta_object_id": "2008-024A",
        "meta_epoch": "2025-12-23T17:40:55.643232",
        "meta_mean_motion": 1.00271951,
        "meta_eccentricity": 0.00029616,
        "meta_inclination": 0.0145,
        "meta_ra_of_asc_node": 299.576,
        "meta_arg_of_pericenter": 337.9968,
        "meta_mean_anomaly": 317.1726,
        "meta_ephemeris_type": 0,
        "meta_classification_type": "U",
        "meta_norad_cat_id": 32951,
        "meta_element_set_no": 999,
        "meta_rev_at_epoch": 4409,
        "meta_bstar": 0,
        "meta_mean_motion_dot": 4.6e-07,
        "meta_mean_motion_ddot": 0,
        "tle_line1": "1 32951U 08024A   25357.73675513  .00000046  00000+0  00000+0 0  9991",
        "tle_line2": "2 32951   0.0145 299.5760 0002961 337.9968 317.1726  1.00271951 44093"
      },
      "geometry": {
        "type": "Point",
        "coordinates": [
          86.36653104378199,
          0.01937133704647471
        ]
      }
    },
    {
      "type": "Feature",
      "properties": {
        "norad_id": 33153,
        "name": "INTELSAT 25 (IS-25)",
        "group": "intelsat",
        "lat": 2.2530431213654163,
        "lon": 177.82204232150207,
        "alt_km": 35786.64859967366,
        "timestamp": "2025-12-24T07:45:05.866395+00:00",
        "meta_object_name": "INTELSAT 25 (IS-25)",
        "meta_object_id": "2008-034A",
        "meta_epoch": "2025-12-23T21:32:33.609408",
        "meta_mean_motion": 1.00272456,
        "meta_eccentricity": 0.00048535,
        "meta_inclination": 2.2546,
        "meta_ra_of_asc_node": 82.53,
        "meta_arg_of_pericenter": 188.0856,
        "meta_mean_anomaly": 113.7071,
        "meta_ephemeris_type": 0,
        "meta_classification_type": "U",
        "meta_norad_cat_id": 33153,
        "meta_element_set_no": 999,
        "meta_rev_at_epoch": 6393,
        "meta_bstar": 0,
        "meta_mean_motion_dot": -2.04e-06,
        "meta_mean_motion_ddot": 0,
        "tle_line1": "1 33153U 08034A   25357.89761122 -.00000204  00000+0  00000+0 0  9993",
        "tle_line2": "2 33153   2.2546  82.5300 0004853 188.0856 113.7071  1.00272456 63938"
      },
      "geometry": {
        "type": "Point",
        "coordinates": [
          177.82204232150207,
          2.2530431213654163
        ]
      }
    }
  ]
}